[{"OBJECT_NAME":"STARLINK-4565","OBJECT_ID":"2022-101AM","EPOCH":"2026-03-09T05:30:20.232576","MEAN_MOTION":15.08835108,"ECCENTRICITY":0.00011662,"INCLINATION":53.2162,"RA_OF_ASC_NODE":56.3286,"ARG_OF_PERICENTER":100.3212,"MEAN_ANOMALY":259.7911,"EPHEMERIS_TYPE":0,"CLASSIFICATION_TYPE":"U","NORAD_CAT_ID":53562,"ELEMENT_SET_NO":999,"REV_AT_EPOCH":19703,"BSTAR":-0.00010083223,"MEAN_MOTION_DOT":-1.892e-5,"MEAN_MOTION_DDOT":0},{"OBJECT_NAME":"ISTSAT-1","OBJECT_ID":"2024-128D","EPOCH":"2026-03-09T22:00:43.506144","MEAN_MOTION":15.10231455,"ECCENTRICITY":0.00491528,"INCLINATION":61.9882,"RA_OF_ASC_NODE":196.777,"ARG_OF_PERICENTER":111.8391,"MEAN_ANOMALY":248.7942,"EPHEMERIS_TYPE":0,"CLASSIFICATION_TYPE":"U","NORAD_CAT_ID":60238,"ELEMENT_SET_NO":999,"REV_AT_EPOCH":9146,"BSTAR":0.00064802971,"MEAN_MOTION_DOT":0.0001075,"MEAN_MOTION_DDOT":0}]
